O3B MPOWER F1           
1 54755U 22174A   24138.30899417 -.00000023  00000+0  00000+0 0  9995
2 54755   0.0640 359.7334 0006786  59.5592 211.6513  5.00114573 27299
